{
  "type": "FeatureCollection",
  "features": [
    {
      "type": "Feature",
      "properties": {
        "norad_id": 48859,
        "name": "GPS BIII-5  (PRN 11)",
        "group": "gnss",
        "lat": 54.58018988193547,
        "lon": 57.338306407390824,
        "alt_km": 20233.978097276347,
        "timestamp": "2025-12-11T15:53:39.785992+00:00",
        "meta_object_name": "GPS BIII-5  (PRN 11)",
        "meta_object_id": "2021-054A",
        "meta_epoch": "2025-12-08T04:14:32.423424",
        "meta_mean_motion": 2.00553627,
        "meta_eccentricity": 0.0024678,
        "meta_inclination": 55.2581,
        "meta_ra_of_asc_node": 340.1367,
        "meta_arg_of_pericenter": 233.3994,
        "meta_mean_anomaly": 212.8593,
        "meta_ephemeris_type": 0,
        "meta_classification_type": "U",
        "meta_norad_cat_id": 48859,
        "meta_element_set_no": 999,
        "meta_rev_at_epoch": 3292,
        "meta_bstar": 0,
        "meta_mean_motion_dot": -8.6e-07,
        "meta_mean_motion_ddot": 0,
        "tle_line1": "1 48859U 21054A   25342.17676416 -.00000086  00000+0  00000+0 0  9993",
        "tle_line2": "2 48859  55.2581 340.1367 0024678 233.3994 212.8593  2.00553627 32922"
      },
      "geometry": {
        "type": "Point",
        "coordinates": [
          57.338306407390824,
          54.58018988193547
        ]
      }
    },
    {
      "type": "Feature",
      "properties": {
        "norad_id": 49336,
        "name": "QZS-1R (QZSS/PRN 196)",
        "group": "gnss",
        "lat": 11.820375391133396,
        "lon": 98.42295378109456,
        "alt_km": 36579.8573220815,
        "timestamp": "2025-12-11T15:53:39.786004+00:00",
        "meta_object_name": "QZS-1R (QZSS/PRN 196)",
        "meta_object_id": "2021-096A",
        "meta_epoch": "2025-12-08T14:42:38.556864",
        "meta_mean_motion": 1.00258569,
        "meta_eccentricity": 0.07543626,
        "meta_inclination": 37.0693,
        "meta_ra_of_asc_node": 82.4203,
        "meta_arg_of_pericenter": 271.2519,
        "meta_mean_anomaly": 79.6136,
        "meta_ephemeris_type": 0,
        "meta_classification_type": "U",
        "meta_norad_cat_id": 49336,
        "meta_element_set_no": 999,
        "meta_rev_at_epoch": 1509,
        "meta_bstar": 0,
        "meta_mean_motion_dot": -2.65e-06,
        "meta_mean_motion_ddot": 0,
        "tle_line1": "1 49336U 21096A   25342.61294626 -.00000265  00000+0  00000+0 0  9997",
        "tle_line2": "2 49336  37.0693  82.4203 0754362 271.2519  79.6136  1.00258569 15091"
      },
      "geometry": {
        "type": "Point",
        "coordinates": [
          98.42295378109456,
          11.820375391133396
        ]
      }
    },
    {
      "type": "Feature",
      "properties": {
        "norad_id": 49809,
        "name": "GSAT0223 (GALILEO 27)",
        "group": "gnss",
        "lat": -41.318796293236254,
        "lon": -158.7530577566179,
        "alt_km": 23214.000525538675,
        "timestamp": "2025-12-11T15:53:39.786019+00:00",
        "meta_object_name": "GSAT0223 (GALILEO 27)",
        "meta_object_id": "2021-116A",
        "meta_epoch": "2025-12-10T02:39:25.687008",
        "meta_mean_motion": 1.70475768,
        "meta_eccentricity": 0.000463,
        "meta_inclination": 57.2198,
        "meta_ra_of_asc_node": 346.7831,
        "meta_arg_of_pericenter": 251.6037,
        "meta_mean_anomaly": 107.9349,
        "meta_ephemeris_type": 0,
        "meta_classification_type": "U",
        "meta_norad_cat_id": 49809,
        "meta_element_set_no": 999,
        "meta_rev_at_epoch": 2495,
        "meta_bstar": 0,
        "meta_mean_motion_dot": -8.7e-07,
        "meta_mean_motion_ddot": 0,
        "tle_line1": "1 49809U 21116A   25344.11071397 -.00000087  00000+0  00000+0 0  9992",
        "tle_line2": "2 49809  57.2198 346.7831 0004630 251.6037 107.9349  1.70475768 24951"
      },
      "geometry": {
        "type": "Point",
        "coordinates": [
          -158.7530577566179,
          -41.318796293236254
        ]
      }
    },
    {
      "type": "Feature",
      "properties": {
        "norad_id": 49810,
        "name": "GSAT0224 (GALILEO 28)",
        "group": "gnss",
        "lat": -13.080641922343698,
        "lon": -21.872317682718492,
        "alt_km": 23223.53541462336,
        "timestamp": "2025-12-11T15:53:39.786032+00:00",
        "meta_object_name": "GSAT0224 (GALILEO 28)",
        "meta_object_id": "2021-116B",
        "meta_epoch": "2025-12-10T19:26:19.690368",
        "meta_mean_motion": 1.70475895,
        "meta_eccentricity": 0.000393,
        "meta_inclination": 57.2205,
        "meta_ra_of_asc_node": 346.7629,
        "meta_arg_of_pericenter": 256.2791,
        "meta_mean_anomaly": 284.9883,
        "meta_ephemeris_type": 0,
        "meta_classification_type": "U",
        "meta_norad_cat_id": 49810,
        "meta_element_set_no": 999,
        "meta_rev_at_epoch": 2499,
        "meta_bstar": 0,
        "meta_mean_motion_dot": -8.7e-07,
        "meta_mean_motion_ddot": 0,
        "tle_line1": "1 49810U 21116B   25344.80995012 -.00000087  00000+0  00000+0 0  9999",
        "tle_line2": "2 49810  57.2205 346.7629 0003930 256.2791 284.9883  1.70475895 24991"
      },
      "geometry": {
        "type": "Point",
        "coordinates": [
          -21.872317682718492,
          -13.080641922343698
        ]
      }
    },
    {
      "type": "Feature",
      "properties": {
        "norad_id": 52984,
        "name": "COSMOS 2557 (706K)",
        "group": "gnss",
        "lat": -15.655561764899796,
        "lon": 148.79549944873318,
        "alt_km": 19125.999837563577,
        "timestamp": "2025-12-11T15:53:39.786046+00:00",
        "meta_object_name": "COSMOS 2557 (706K)",
        "meta_object_id": "2022-075A",
        "meta_epoch": "2025-12-07T04:21:00.419904",
        "meta_mean_motion": 2.13101754,
        "meta_eccentricity": 0.00137049,
        "meta_inclination": 64.4129,
        "meta_ra_of_asc_node": 321.247,
        "meta_arg_of_pericenter": 276.9,
        "meta_mean_anomaly": 82.939,
        "meta_ephemeris_type": 0,
        "meta_classification_type": "U",
        "meta_norad_cat_id": 52984,
        "meta_element_set_no": 999,
        "meta_rev_at_epoch": 2662,
        "meta_bstar": 0,
        "meta_mean_motion_dot": -5.2e-07,
        "meta_mean_motion_ddot": 0,
        "tle_line1": "1 52984U 22075A   25341.18125486 -.00000052  00000+0  00000+0 0  9990",
        "tle_line2": "2 52984  64.4129 321.2470 0013704 276.9000  82.9390  2.13101754 26625"
      },
      "geometry": {
        "type": "Point",
        "coordinates": [
          148.79549944873318,
          -15.655561764899796
        ]
      }
    },
    {
      "type": "Feature",
      "properties": {
        "norad_id": 54031,
        "name": "COSMOS 2559 (707K)",
        "group": "gnss",
        "lat": -21.12455892385896,
        "lon": -49.51135029220902,
        "alt_km": 19157.493217577146,
        "timestamp": "2025-12-11T15:53:39.786057+00:00",
        "meta_object_name": "COSMOS 2559 (707K)",
        "meta_object_id": "2022-130A",
        "meta_epoch": "2025-12-10T06:50:46.265280",
        "meta_mean_motion": 2.13101297,
        "meta_eccentricity": 0.00118632,
        "meta_inclination": 64.3837,
        "meta_ra_of_asc_node": 321.2275,
        "meta_arg_of_pericenter": 192.5527,
        "meta_mean_anomaly": 167.4169,
        "meta_ephemeris_type": 0,
        "meta_classification_type": "U",
        "meta_norad_cat_id": 54031,
        "meta_element_set_no": 999,
        "meta_rev_at_epoch": 2466,
        "meta_bstar": 0,
        "meta_mean_motion_dot": -5.3e-07,
        "meta_mean_motion_ddot": 0,
        "tle_line1": "1 54031U 22130A   25344.28525770 -.00000053  00000+0  00000+0 0  9992",
        "tle_line2": "2 54031  64.3837 321.2275 0011863 192.5527 167.4169  2.13101297 24666"
      },
      "geometry": {
        "type": "Point",
        "coordinates": [
          -49.51135029220902,
          -21.12455892385896
        ]
      }
    },
    {
      "type": "Feature",
      "properties": {
        "norad_id": 54377,
        "name": "COSMOS 2564 (761)",
        "group": "gnss",
        "lat": 64.11005859807723,
        "lon": -57.67348651514823,
        "alt_km": 19130.270983189992,
        "timestamp": "2025-12-11T15:53:39.786068+00:00",
        "meta_object_name": "COSMOS 2564 (761)",
        "meta_object_id": "2022-161A",
        "meta_epoch": "2025-12-10T14:22:10.689312",
        "meta_mean_motion": 2.1310202,
        "meta_eccentricity": 0.0008624,
        "meta_inclination": 64.738,
        "meta_ra_of_asc_node": 198.9701,
        "meta_arg_of_pericenter": 205.0388,
        "meta_mean_anomaly": 154.9896,
        "meta_ephemeris_type": 0,
        "meta_classification_type": "U",
        "meta_norad_cat_id": 54377,
        "meta_element_set_no": 999,
        "meta_rev_at_epoch": 2361,
        "meta_bstar": 0,
        "meta_mean_motion_dot": 4.7e-07,
        "meta_mean_motion_ddot": 0,
        "tle_line1": "1 54377U 22161A   25344.59873483  .00000047  00000+0  00000+0 0  9992",
        "tle_line2": "2 54377  64.7380 198.9701 0008624 205.0388 154.9896  2.13102020 23612"
      },
      "geometry": {
        "type": "Point",
        "coordinates": [
          -57.67348651514823,
          64.11005859807723
        ]
      }
    }
  ]
}